[{"OBJECT_NAME":"ONEWEB-0379","OBJECT_ID":"2021-090AC","EPOCH":"2025-11-05T02:23:02.307264","MEAN_MOTION":13.14501903,"ECCENTRICITY":0.0001793,"INCLINATION":87.9005,"RA_OF_ASC_NODE":334.3501,"ARG_OF_PERICENTER":97.9252,"MEAN_ANOMALY":262.2082,"EPHEMERIS_TYPE":0,"CLASSIFICATION_TYPE":"U","NORAD_CAT_ID":49305,"ELEMENT_SET_NO":999,"REV_AT_EPOCH":19812,"BSTAR":-0.00048671503,"MEAN_MOTION_DOT":-1.68e-6,"MEAN_MOTION_DDOT":0},{"OBJECT_NAME":"ONEWEB-0380","OBJECT_ID":"2021-090AD","EPOCH":"2025-11-05T03:30:58.468320","MEAN_MOTION":13.19726361,"ECCENTRICITY":0.00017264,"INCLINATION":87.9235,"RA_OF_ASC_NODE":349.5527,"ARG_OF_PERICENTER":91.9468,"MEAN_ANOMALY":268.1862,"EPHEMERIS_TYPE":0,"CLASSIFICATION_TYPE":"U","NORAD_CAT_ID":49306,"ELEMENT_SET_NO":999,"REV_AT_EPOCH":19687,"BSTAR":0.00034341111,"MEAN_MOTION_DOT":1.5e-6,"MEAN_MOTION_DDOT":0},{"OBJECT_NAME":"ONEWEB-0381","OBJECT_ID":"2021-090AE","EPOCH":"2025-11-05T07:07:42.041568","MEAN_MOTION":13.2077241,"ECCENTRICITY":0.00016278,"INCLINATION":87.9181,"RA_OF_ASC_NODE":319.0921,"ARG_OF_PERICENTER":89.4293,"MEAN_ANOMALY":270.7027,"EPHEMERIS_TYPE":0,"CLASSIFICATION_TYPE":"U","NORAD_CAT_ID":49307,"ELEMENT_SET_NO":999,"REV_AT_EPOCH":20027,"BSTAR":0.00028029583,"MEAN_MOTION_DOT":1.27e-6,"MEAN_MOTION_DDOT":0},{"OBJECT_NAME":"ONEWEB-0382","OBJECT_ID":"2021-090AF","EPOCH":"2025-11-05T06:49:31.262304","MEAN_MOTION":13.20771808,"ECCENTRICITY":0.00015344,"INCLINATION":87.9192,"RA_OF_ASC_NODE":319.0879,"ARG_OF_PERICENTER":94.4849,"MEAN_ANOMALY":265.646,"EPHEMERIS_TYPE":0,"CLASSIFICATION_TYPE":"U","NORAD_CAT_ID":49308,"ELEMENT_SET_NO":999,"REV_AT_EPOCH":20026,"BSTAR":0.00033580783,"MEAN_MOTION_DOT":1.5e-6,"MEAN_MOTION_DDOT":0},{"OBJECT_NAME":"ONEWEB-0383","OBJECT_ID":"2021-090AG","EPOCH":"2025-11-05T02:13:54.221952","MEAN_MOTION":13.14506195,"ECCENTRICITY":0.00017884,"INCLINATION":87.901,"RA_OF_ASC_NODE":334.3344,"ARG_OF_PERICENTER":97.9173,"MEAN_ANOMALY":262.216,"EPHEMERIS_TYPE":0,"CLASSIFICATION_TYPE":"U","NORAD_CAT_ID":49309,"ELEMENT_SET_NO":999,"REV_AT_EPOCH":19815,"BSTAR":-0.0015043484,"MEAN_MOTION_DOT":-5.45e-6,"MEAN_MOTION_DDOT":0},{"OBJECT_NAME":"ONEWEB-0384","OBJECT_ID":"2021-090AH","EPOCH":"2025-11-05T06:41:05.288352","MEAN_MOTION":13.20797138,"ECCENTRICITY":0.00013368,"INCLINATION":87.9197,"RA_OF_ASC_NODE":319.1215,"ARG_OF_PERICENTER":102.881,"MEAN_ANOMALY":257.2473,"EPHEMERIS_TYPE":0,"CLASSIFICATION_TYPE":"U","NORAD_CAT_ID":49310,"ELEMENT_SET_NO":999,"REV_AT_EPOCH":20027,"BSTAR":0.0001423728,"MEAN_MOTION_DOT":7.1e-7,"MEAN_MOTION_DDOT":0},{"OBJECT_NAME":"ONEWEB-0385","OBJECT_ID":"2021-090AJ","EPOCH":"2025-11-05T06:38:08.865600","MEAN_MOTION":13.20772624,"ECCENTRICITY":0.00016839,"INCLINATION":87.918,"RA_OF_ASC_NODE":319.0978,"ARG_OF_PERICENTER":93.3234,"MEAN_ANOMALY":266.8092,"EPHEMERIS_TYPE":0,"CLASSIFICATION_TYPE":"U","NORAD_CAT_ID":49311,"ELEMENT_SET_NO":999,"REV_AT_EPOCH":20024,"BSTAR":6.8742732e-5,"MEAN_MOTION_DOT":4.1e-7,"MEAN_MOTION_DDOT":0},{"OBJECT_NAME":"ONEWEB-0386","OBJECT_ID":"2021-090AK","EPOCH":"2025-11-05T01:35:52.865376","MEAN_MOTION":13.20771511,"ECCENTRICITY":0.0001598,"INCLINATION":87.9191,"RA_OF_ASC_NODE":319.1203,"ARG_OF_PERICENTER":96.2138,"MEAN_ANOMALY":263.9177,"EPHEMERIS_TYPE":0,"CLASSIFICATION_TYPE":"U","NORAD_CAT_ID":49312,"ELEMENT_SET_NO":999,"REV_AT_EPOCH":20023,"BSTAR":-5.5145611e-5,"MEAN_MOTION_DOT":-9.0e-8,"MEAN_MOTION_DDOT":0},{"OBJECT_NAME":"ONEWEB-0387","OBJECT_ID":"2021-090AL","EPOCH":"2025-11-05T06:40:25.618656","MEAN_MOTION":13.20771008,"ECCENTRICITY":0.00016402,"INCLINATION":87.9179,"RA_OF_ASC_NODE":319.127,"ARG_OF_PERICENTER":83.3856,"MEAN_ANOMALY":276.7464,"EPHEMERIS_TYPE":0,"CLASSIFICATION_TYPE":"U","NORAD_CAT_ID":49313,"ELEMENT_SET_NO":999,"REV_AT_EPOCH":20026,"BSTAR":0.00016630076,"MEAN_MOTION_DOT":8.1e-7,"MEAN_MOTION_DDOT":0},{"OBJECT_NAME":"ONEWEB-0388","OBJECT_ID":"2021-090AM","EPOCH":"2025-11-05T03:24:09.108576","MEAN_MOTION":13.19725738,"ECCENTRICITY":0.00017173,"INCLINATION":87.9227,"RA_OF_ASC_NODE":349.5576,"ARG_OF_PERICENTER":98.3849,"MEAN_ANOMALY":261.7478,"EPHEMERIS_TYPE":0,"CLASSIFICATION_TYPE":"U","NORAD_CAT_ID":49314,"ELEMENT_SET_NO":999,"REV_AT_EPOCH":19686,"BSTAR":4.6669999e-5,"MEAN_MOTION_DOT":3.2e-7,"MEAN_MOTION_DDOT":0},{"OBJECT_NAME":"ONEWEB-0389","OBJECT_ID":"2021-132A","EPOCH":"2025-11-05T06:18:39.316320","MEAN_MOTION":13.17650467,"ECCENTRICITY":0.00013649,"INCLINATION":87.9133,"RA_OF_ASC_NODE":50.3974,"ARG_OF_PERICENTER":97.8955,"MEAN_ANOMALY":262.2332,"EPHEMERIS_TYPE":0,"CLASSIFICATION_TYPE":"U","NORAD_CAT_ID":50469,"ELEMENT_SET_NO":999,"REV_AT_EPOCH":18859,"BSTAR":0.00014866317,"MEAN_MOTION_DOT":7.1e-7,"MEAN_MOTION_DDOT":0},{"OBJECT_NAME":"ONEWEB-0390","OBJECT_ID":"2021-132B","EPOCH":"2025-11-05T06:21:05.103360","MEAN_MOTION":13.17649864,"ECCENTRICITY":0.00018361,"INCLINATION":87.9128,"RA_OF_ASC_NODE":50.4019,"ARG_OF_PERICENTER":93.062,"MEAN_ANOMALY":267.0722,"EPHEMERIS_TYPE":0,"CLASSIFICATION_TYPE":"U","NORAD_CAT_ID":50470,"ELEMENT_SET_NO":999,"REV_AT_EPOCH":18859,"BSTAR":0.00027834214,"MEAN_MOTION_DOT":1.21e-6,"MEAN_MOTION_DDOT":0},{"OBJECT_NAME":"ONEWEB-0391","OBJECT_ID":"2021-132C","EPOCH":"2025-11-05T06:23:30.222528","MEAN_MOTION":13.17651706,"ECCENTRICITY":0.00012491,"INCLINATION":87.9125,"RA_OF_ASC_NODE":50.4117,"ARG_OF_PERICENTER":76.2505,"MEAN_ANOMALY":283.8765,"EPHEMERIS_TYPE":0,"CLASSIFICATION_TYPE":"U","NORAD_CAT_ID":50471,"ELEMENT_SET_NO":999,"REV_AT_EPOCH":18859,"BSTAR":0.00030113902,"MEAN_MOTION_DOT":1.3e-6,"MEAN_MOTION_DDOT":0},{"OBJECT_NAME":"ONEWEB-0392","OBJECT_ID":"2021-132D","EPOCH":"2025-11-05T05:17:53.022912","MEAN_MOTION":13.17652241,"ECCENTRICITY":0.00013292,"INCLINATION":87.9137,"RA_OF_ASC_NODE":50.3702,"ARG_OF_PERICENTER":94.9116,"MEAN_ANOMALY":265.2167,"EPHEMERIS_TYPE":0,"CLASSIFICATION_TYPE":"U","NORAD_CAT_ID":50472,"ELEMENT_SET_NO":999,"REV_AT_EPOCH":18862,"BSTAR":0.00018658648,"MEAN_MOTION_DOT":8.5e-7,"MEAN_MOTION_DDOT":0},{"OBJECT_NAME":"ONEWEB-0393","OBJECT_ID":"2021-132E","EPOCH":"2025-11-05T06:28:33.752640","MEAN_MOTION":13.17647779,"ECCENTRICITY":0.00015011,"INCLINATION":87.9138,"RA_OF_ASC_NODE":50.3814,"ARG_OF_PERICENTER":98.6957,"MEAN_ANOMALY":261.4345,"EPHEMERIS_TYPE":0,"CLASSIFICATION_TYPE":"U","NORAD_CAT_ID":50473,"ELEMENT_SET_NO":999,"REV_AT_EPOCH":18862,"BSTAR":0.00010205477,"MEAN_MOTION_DOT":5.2e-7,"MEAN_MOTION_DDOT":0},{"OBJECT_NAME":"ONEWEB-0394","OBJECT_ID":"2021-132F","EPOCH":"2025-11-05T04:28:15.232224","MEAN_MOTION":13.18687473,"ECCENTRICITY":0.00016356,"INCLINATION":87.9225,"RA_OF_ASC_NODE":19.9271,"ARG_OF_PERICENTER":100.9112,"MEAN_ANOMALY":259.2204,"EPHEMERIS_TYPE":0,"CLASSIFICATION_TYPE":"U","NORAD_CAT_ID":50474,"ELEMENT_SET_NO":999,"REV_AT_EPOCH":19207,"BSTAR":7.9620659e-5,"MEAN_MOTION_DOT":4.4e-7,"MEAN_MOTION_DDOT":0},{"OBJECT_NAME":"ONEWEB-0395","OBJECT_ID":"2021-132G","EPOCH":"2025-11-05T02:00:07.935552","MEAN_MOTION":13.11418879,"ECCENTRICITY":0.00016093,"INCLINATION":87.885,"RA_OF_ASC_NODE":65.7051,"ARG_OF_PERICENTER":90.34,"MEAN_ANOMALY":269.7913,"EPHEMERIS_TYPE":0,"CLASSIFICATION_TYPE":"U","NORAD_CAT_ID":50475,"ELEMENT_SET_NO":999,"REV_AT_EPOCH":18634,"BSTAR":0.0012356977,"MEAN_MOTION_DOT":4.51e-6,"MEAN_MOTION_DDOT":0}]
