ONEWEB-0379             
1 49305U 21090AC  25309.09933226 -.00000168  00000+0 -48672-3 0  9992
2 49305  87.9005 334.3501 0001793  97.9252 262.2082 13.14501903198125
ONEWEB-0380             
1 49306U 21090AD  25309.14651005  .00000150  00000+0  34341-3 0  9998
2 49306  87.9235 349.5527 0001726  91.9468 268.1862 13.19726361196879
ONEWEB-0381             
1 49307U 21090AE  25309.29701437  .00000127  00000+0  28030-3 0  9992
2 49307  87.9181 319.0921 0001627  89.4293 270.7027 13.20772410200278
ONEWEB-0382             
1 49308U 21090AF  25309.28438961  .00000150  00000+0  33581-3 0  9994
2 49308  87.9192 319.0879 0001534  94.4849 265.6460 13.20771808200266
ONEWEB-0383             
1 49309U 21090AG  25309.09298868 -.00000545  00000+0 -15043-2 0  9996
2 49309  87.9010 334.3344 0001788  97.9173 262.2160 13.14506195198154
ONEWEB-0384             
1 49310U 21090AH  25309.27853343  .00000071  00000+0  14237-3 0  9990
2 49310  87.9197 319.1215 0001336 102.8810 257.2473 13.20797138200277
ONEWEB-0385             
1 49311U 21090AJ  25309.27649150  .00000041  00000+0  68743-4 0  9999
2 49311  87.9180 319.0978 0001683  93.3234 266.8092 13.20772624200247
ONEWEB-0386             
1 49312U 21090AK  25309.06658409 -.00000009  00000+0 -55146-4 0  9993
2 49312  87.9191 319.1203 0001598  96.2138 263.9177 13.20771511200237
ONEWEB-0387             
1 49313U 21090AL  25309.27807429  .00000081  00000+0  16630-3 0  9997
2 49313  87.9179 319.1270 0001640  83.3856 276.7464 13.20771008200265
ONEWEB-0388             
1 49314U 21090AM  25309.14177209  .00000032  00000+0  46670-4 0  9994
2 49314  87.9227 349.5576 0001717  98.3849 261.7478 13.19725738196865
ONEWEB-0389             
1 50469U 21132A   25309.26295505  .00000071  00000+0  14866-3 0  9991
2 50469  87.9133  50.3974 0001364  97.8955 262.2332 13.17650467188593
ONEWEB-0390             
1 50470U 21132B   25309.26464240  .00000121  00000+0  27834-3 0  9992
2 50470  87.9128  50.4019 0001836  93.0620 267.0722 13.17649864188596
ONEWEB-0391             
1 50471U 21132C   25309.26632202  .00000130  00000+0  30114-3 0  9993
2 50471  87.9125  50.4117 0001249  76.2505 283.8765 13.17651706188597
ONEWEB-0392             
1 50472U 21132D   25309.22075258  .00000085  00000+0  18659-3 0  9991
2 50472  87.9137  50.3702 0001329  94.9116 265.2167 13.17652241188623
ONEWEB-0393             
1 50473U 21132E   25309.26983510  .00000052  00000+0  10205-3 0  9998
2 50473  87.9138  50.3814 0001501  98.6957 261.4345 13.17647779188621
ONEWEB-0394             
1 50474U 21132F   25309.18628741  .00000044  00000+0  79621-4 0  9991
2 50474  87.9225  19.9271 0001635 100.9112 259.2204 13.18687473192074
ONEWEB-0395             
1 50475U 21132G   25309.08342518  .00000451  00000+0  12357-2 0  9999
2 50475  87.8850  65.7051 0001609  90.3400 269.7913 13.11418879186347
